ORBCOMM FM103           
1 40091U 14040F   25101.92567609  .00001504  00000+0  36061-3 0  9994
2 40091  47.0069 330.7061 0002058 326.6661  33.4094 14.58035048554439
ORBCOMM FM114           
1 41179U 15081A   25101.88076995  .00001799  00000+0  42337-3 0  9995
2 41179  47.0022 240.0030 0001355  34.0389 326.0583 14.58092944494795
ORBCOMM FM119           
1 41180U 15081B   25101.45440062  .00001366  00000+0  33082-3 0  9997
2 41180  46.9991 151.3054 0000332 182.1895 177.8989 14.58009164495987
ORBCOMM FM105           
1 41181U 15081C   25101.85189372  .00000626  00000+0  22203-3 0  9997
2 41181  47.0001 147.9440 0001538 347.4635  12.6207 14.45150326491156
ORBCOMM FM110           
1 41182U 15081D   25101.72007188  .00002104  00000+0  49058-3 0  9998
2 41182  47.0004 240.1346 0002635 228.7079 131.3579 14.57946240494642
ORBCOMM FM118           
1 41183U 15081E   25101.84216847  .00002223  00000+0  51518-3 0  9992
2 41183  47.0030 240.0190 0003107 206.3755 153.6972 14.58047522494769
ORBCOMM FM112           
1 41184U 15081F   25101.84197479  .00001550  00000+0  37085-3 0  9997
2 41184  46.9980 148.6359 0000665   9.5327 350.5571 14.57962814495983
ORBCOMM FM113           
1 41185U 15081G   25101.81894006  .00001459  00000+0  35110-3 0  9990
2 41185  46.9994 149.0609 0000218   6.7879 353.3010 14.58000563495969
