<?xml version="1.0" encoding="UTF-8"?>
<ndm xmlns:xsi="http://www.w3.org/2001/XMLSchema-instance" xsi:noNamespaceSchemaLocation="https://sanaregistry.org/r/ndmxml_unqualified/ndmxml-2.0.0-master-2.0.xsd">
<omm id="CCSDS_OMM_VERS" version="2.0">
<header><CREATION_DATE/><ORIGINATOR/></header><body><segment><metadata><OBJECT_NAME>ORBCOMM FM103</OBJECT_NAME><OBJECT_ID>2014-040F</OBJECT_ID><CENTER_NAME>EARTH</CENTER_NAME><REF_FRAME>TEME</REF_FRAME><TIME_SYSTEM>UTC</TIME_SYSTEM><MEAN_ELEMENT_THEORY>SGP4</MEAN_ELEMENT_THEORY></metadata><data><meanElements><EPOCH>2025-04-11T22:12:58.414176</EPOCH><MEAN_MOTION>14.58035048</MEAN_MOTION><ECCENTRICITY>.0002058</ECCENTRICITY><INCLINATION>47.0069</INCLINATION><RA_OF_ASC_NODE>330.7061</RA_OF_ASC_NODE><ARG_OF_PERICENTER>326.6661</ARG_OF_PERICENTER><MEAN_ANOMALY>33.4094</MEAN_ANOMALY></meanElements><tleParameters><EPHEMERIS_TYPE>0</EPHEMERIS_TYPE><CLASSIFICATION_TYPE>U</CLASSIFICATION_TYPE><NORAD_CAT_ID>40091</NORAD_CAT_ID><ELEMENT_SET_NO>999</ELEMENT_SET_NO><REV_AT_EPOCH>55443</REV_AT_EPOCH><BSTAR>.36061E-3</BSTAR><MEAN_MOTION_DOT>.1504E-4</MEAN_MOTION_DOT><MEAN_MOTION_DDOT>0</MEAN_MOTION_DDOT></tleParameters></data></segment></body></omm>
<omm id="CCSDS_OMM_VERS" version="2.0">
<header><CREATION_DATE/><ORIGINATOR/></header><body><segment><metadata><OBJECT_NAME>ORBCOMM FM114</OBJECT_NAME><OBJECT_ID>2015-081A</OBJECT_ID><CENTER_NAME>EARTH</CENTER_NAME><REF_FRAME>TEME</REF_FRAME><TIME_SYSTEM>UTC</TIME_SYSTEM><MEAN_ELEMENT_THEORY>SGP4</MEAN_ELEMENT_THEORY></metadata><data><meanElements><EPOCH>2025-04-11T21:08:18.523680</EPOCH><MEAN_MOTION>14.58092944</MEAN_MOTION><ECCENTRICITY>.0001355</ECCENTRICITY><INCLINATION>47.0022</INCLINATION><RA_OF_ASC_NODE>240.0030</RA_OF_ASC_NODE><ARG_OF_PERICENTER>34.0389</ARG_OF_PERICENTER><MEAN_ANOMALY>326.0583</MEAN_ANOMALY></meanElements><tleParameters><EPHEMERIS_TYPE>0</EPHEMERIS_TYPE><CLASSIFICATION_TYPE>U</CLASSIFICATION_TYPE><NORAD_CAT_ID>41179</NORAD_CAT_ID><ELEMENT_SET_NO>999</ELEMENT_SET_NO><REV_AT_EPOCH>49479</REV_AT_EPOCH><BSTAR>.42337E-3</BSTAR><MEAN_MOTION_DOT>.1799E-4</MEAN_MOTION_DOT><MEAN_MOTION_DDOT>0</MEAN_MOTION_DDOT></tleParameters></data></segment></body></omm>
<omm id="CCSDS_OMM_VERS" version="2.0">
<header><CREATION_DATE/><ORIGINATOR/></header><body><segment><metadata><OBJECT_NAME>ORBCOMM FM119</OBJECT_NAME><OBJECT_ID>2015-081B</OBJECT_ID><CENTER_NAME>EARTH</CENTER_NAME><REF_FRAME>TEME</REF_FRAME><TIME_SYSTEM>UTC</TIME_SYSTEM><MEAN_ELEMENT_THEORY>SGP4</MEAN_ELEMENT_THEORY></metadata><data><meanElements><EPOCH>2025-04-11T10:54:20.213568</EPOCH><MEAN_MOTION>14.58009164</MEAN_MOTION><ECCENTRICITY>.0000332</ECCENTRICITY><INCLINATION>46.9991</INCLINATION><RA_OF_ASC_NODE>151.3054</RA_OF_ASC_NODE><ARG_OF_PERICENTER>182.1895</ARG_OF_PERICENTER><MEAN_ANOMALY>177.8989</MEAN_ANOMALY></meanElements><tleParameters><EPHEMERIS_TYPE>0</EPHEMERIS_TYPE><CLASSIFICATION_TYPE>U</CLASSIFICATION_TYPE><NORAD_CAT_ID>41180</NORAD_CAT_ID><ELEMENT_SET_NO>999</ELEMENT_SET_NO><REV_AT_EPOCH>49598</REV_AT_EPOCH><BSTAR>.33082E-3</BSTAR><MEAN_MOTION_DOT>.1366E-4</MEAN_MOTION_DOT><MEAN_MOTION_DDOT>0</MEAN_MOTION_DDOT></tleParameters></data></segment></body></omm>
<omm id="CCSDS_OMM_VERS" version="2.0">
<header><CREATION_DATE/><ORIGINATOR/></header><body><segment><metadata><OBJECT_NAME>ORBCOMM FM105</OBJECT_NAME><OBJECT_ID>2015-081C</OBJECT_ID><CENTER_NAME>EARTH</CENTER_NAME><REF_FRAME>TEME</REF_FRAME><TIME_SYSTEM>UTC</TIME_SYSTEM><MEAN_ELEMENT_THEORY>SGP4</MEAN_ELEMENT_THEORY></metadata><data><meanElements><EPOCH>2025-04-11T20:26:43.617408</EPOCH><MEAN_MOTION>14.45150326</MEAN_MOTION><ECCENTRICITY>.0001538</ECCENTRICITY><INCLINATION>47.0001</INCLINATION><RA_OF_ASC_NODE>147.9440</RA_OF_ASC_NODE><ARG_OF_PERICENTER>347.4635</ARG_OF_PERICENTER><MEAN_ANOMALY>12.6207</MEAN_ANOMALY></meanElements><tleParameters><EPHEMERIS_TYPE>0</EPHEMERIS_TYPE><CLASSIFICATION_TYPE>U</CLASSIFICATION_TYPE><NORAD_CAT_ID>41181</NORAD_CAT_ID><ELEMENT_SET_NO>999</ELEMENT_SET_NO><REV_AT_EPOCH>49115</REV_AT_EPOCH><BSTAR>.22203E-3</BSTAR><MEAN_MOTION_DOT>.626E-5</MEAN_MOTION_DOT><MEAN_MOTION_DDOT>0</MEAN_MOTION_DDOT></tleParameters></data></segment></body></omm>
<omm id="CCSDS_OMM_VERS" version="2.0">
<header><CREATION_DATE/><ORIGINATOR/></header><body><segment><metadata><OBJECT_NAME>ORBCOMM FM110</OBJECT_NAME><OBJECT_ID>2015-081D</OBJECT_ID><CENTER_NAME>EARTH</CENTER_NAME><REF_FRAME>TEME</REF_FRAME><TIME_SYSTEM>UTC</TIME_SYSTEM><MEAN_ELEMENT_THEORY>SGP4</MEAN_ELEMENT_THEORY></metadata><data><meanElements><EPOCH>2025-04-11T17:16:54.210432</EPOCH><MEAN_MOTION>14.57946240</MEAN_MOTION><ECCENTRICITY>.0002635</ECCENTRICITY><INCLINATION>47.0004</INCLINATION><RA_OF_ASC_NODE>240.1346</RA_OF_ASC_NODE><ARG_OF_PERICENTER>228.7079</ARG_OF_PERICENTER><MEAN_ANOMALY>131.3579</MEAN_ANOMALY></meanElements><tleParameters><EPHEMERIS_TYPE>0</EPHEMERIS_TYPE><CLASSIFICATION_TYPE>U</CLASSIFICATION_TYPE><NORAD_CAT_ID>41182</NORAD_CAT_ID><ELEMENT_SET_NO>999</ELEMENT_SET_NO><REV_AT_EPOCH>49464</REV_AT_EPOCH><BSTAR>.49058E-3</BSTAR><MEAN_MOTION_DOT>.2104E-4</MEAN_MOTION_DOT><MEAN_MOTION_DDOT>0</MEAN_MOTION_DDOT></tleParameters></data></segment></body></omm>
<omm id="CCSDS_OMM_VERS" version="2.0">
<header><CREATION_DATE/><ORIGINATOR/></header><body><segment><metadata><OBJECT_NAME>ORBCOMM FM118</OBJECT_NAME><OBJECT_ID>2015-081E</OBJECT_ID><CENTER_NAME>EARTH</CENTER_NAME><REF_FRAME>TEME</REF_FRAME><TIME_SYSTEM>UTC</TIME_SYSTEM><MEAN_ELEMENT_THEORY>SGP4</MEAN_ELEMENT_THEORY></metadata><data><meanElements><EPOCH>2025-04-11T20:12:43.355808</EPOCH><MEAN_MOTION>14.58047522</MEAN_MOTION><ECCENTRICITY>.0003107</ECCENTRICITY><INCLINATION>47.0030</INCLINATION><RA_OF_ASC_NODE>240.0190</RA_OF_ASC_NODE><ARG_OF_PERICENTER>206.3755</ARG_OF_PERICENTER><MEAN_ANOMALY>153.6972</MEAN_ANOMALY></meanElements><tleParameters><EPHEMERIS_TYPE>0</EPHEMERIS_TYPE><CLASSIFICATION_TYPE>U</CLASSIFICATION_TYPE><NORAD_CAT_ID>41183</NORAD_CAT_ID><ELEMENT_SET_NO>999</ELEMENT_SET_NO><REV_AT_EPOCH>49476</REV_AT_EPOCH><BSTAR>.51518E-3</BSTAR><MEAN_MOTION_DOT>.2223E-4</MEAN_MOTION_DOT><MEAN_MOTION_DDOT>0</MEAN_MOTION_DDOT></tleParameters></data></segment></body></omm>
<omm id="CCSDS_OMM_VERS" version="2.0">
<header><CREATION_DATE/><ORIGINATOR/></header><body><segment><metadata><OBJECT_NAME>ORBCOMM FM112</OBJECT_NAME><OBJECT_ID>2015-081F</OBJECT_ID><CENTER_NAME>EARTH</CENTER_NAME><REF_FRAME>TEME</REF_FRAME><TIME_SYSTEM>UTC</TIME_SYSTEM><MEAN_ELEMENT_THEORY>SGP4</MEAN_ELEMENT_THEORY></metadata><data><meanElements><EPOCH>2025-04-11T20:12:26.621856</EPOCH><MEAN_MOTION>14.57962814</MEAN_MOTION><ECCENTRICITY>.0000665</ECCENTRICITY><INCLINATION>46.9980</INCLINATION><RA_OF_ASC_NODE>148.6359</RA_OF_ASC_NODE><ARG_OF_PERICENTER>9.5327</ARG_OF_PERICENTER><MEAN_ANOMALY>350.5571</MEAN_ANOMALY></meanElements><tleParameters><EPHEMERIS_TYPE>0</EPHEMERIS_TYPE><CLASSIFICATION_TYPE>U</CLASSIFICATION_TYPE><NORAD_CAT_ID>41184</NORAD_CAT_ID><ELEMENT_SET_NO>999</ELEMENT_SET_NO><REV_AT_EPOCH>49598</REV_AT_EPOCH><BSTAR>.37085E-3</BSTAR><MEAN_MOTION_DOT>.155E-4</MEAN_MOTION_DOT><MEAN_MOTION_DDOT>0</MEAN_MOTION_DDOT></tleParameters></data></segment></body></omm>
<omm id="CCSDS_OMM_VERS" version="2.0">
<header><CREATION_DATE/><ORIGINATOR/></header><body><segment><metadata><OBJECT_NAME>ORBCOMM FM113</OBJECT_NAME><OBJECT_ID>2015-081G</OBJECT_ID><CENTER_NAME>EARTH</CENTER_NAME><REF_FRAME>TEME</REF_FRAME><TIME_SYSTEM>UTC</TIME_SYSTEM><MEAN_ELEMENT_THEORY>SGP4</MEAN_ELEMENT_THEORY></metadata><data><meanElements><EPOCH>2025-04-11T19:39:16.421184</EPOCH><MEAN_MOTION>14.58000563</MEAN_MOTION><ECCENTRICITY>.0000218</ECCENTRICITY><INCLINATION>46.9994</INCLINATION><RA_OF_ASC_NODE>149.0609</RA_OF_ASC_NODE><ARG_OF_PERICENTER>6.7879</ARG_OF_PERICENTER><MEAN_ANOMALY>353.3010</MEAN_ANOMALY></meanElements><tleParameters><EPHEMERIS_TYPE>0</EPHEMERIS_TYPE><CLASSIFICATION_TYPE>U</CLASSIFICATION_TYPE><NORAD_CAT_ID>41185</NORAD_CAT_ID><ELEMENT_SET_NO>999</ELEMENT_SET_NO><REV_AT_EPOCH>49596</REV_AT_EPOCH><BSTAR>.3511E-3</BSTAR><MEAN_MOTION_DOT>.1459E-4</MEAN_MOTION_DOT><MEAN_MOTION_DDOT>0</MEAN_MOTION_DDOT></tleParameters></data></segment></body></omm>

</ndm>
